[{"OBJECT_NAME":"ONEWEB-0367","OBJECT_ID":"2021-090Q","EPOCH":"2025-09-23T04:42:24.225408","MEAN_MOTION":13.20792127,"ECCENTRICITY":0.00018951,"INCLINATION":87.9262,"RA_OF_ASC_NODE":327.6696,"ARG_OF_PERICENTER":85.552,"MEAN_ANOMALY":274.5829,"EPHEMERIS_TYPE":0,"CLASSIFICATION_TYPE":"U","NORAD_CAT_ID":49293,"ELEMENT_SET_NO":999,"REV_AT_EPOCH":19458,"BSTAR":-0.010903657,"MEAN_MOTION_DOT":-4.42e-5,"MEAN_MOTION_DDOT":0},{"OBJECT_NAME":"ONEWEB-0368","OBJECT_ID":"2021-090R","EPOCH":"2025-09-22T13:31:03.941184","MEAN_MOTION":13.20770207,"ECCENTRICITY":0.00014179,"INCLINATION":87.9256,"RA_OF_ASC_NODE":327.8309,"ARG_OF_PERICENTER":73.518,"MEAN_ANOMALY":286.6109,"EPHEMERIS_TYPE":0,"CLASSIFICATION_TYPE":"U","NORAD_CAT_ID":49294,"ELEMENT_SET_NO":999,"REV_AT_EPOCH":19565,"BSTAR":-2.6294371e-5,"MEAN_MOTION_DOT":2.0e-8,"MEAN_MOTION_DDOT":0},{"OBJECT_NAME":"ONEWEB-0369","OBJECT_ID":"2021-090S","EPOCH":"2025-09-23T00:05:10.235616","MEAN_MOTION":13.19725793,"ECCENTRICITY":0.0001711,"INCLINATION":87.9293,"RA_OF_ASC_NODE":358.113,"ARG_OF_PERICENTER":101.0618,"MEAN_ANOMALY":259.0707,"EPHEMERIS_TYPE":0,"CLASSIFICATION_TYPE":"U","NORAD_CAT_ID":49295,"ELEMENT_SET_NO":999,"REV_AT_EPOCH":19117,"BSTAR":0.00016064304,"MEAN_MOTION_DOT":7.7e-7,"MEAN_MOTION_DDOT":0},{"OBJECT_NAME":"ONEWEB-0370","OBJECT_ID":"2021-090T","EPOCH":"2025-09-23T04:56:03.503904","MEAN_MOTION":13.20770422,"ECCENTRICITY":0.00021329,"INCLINATION":87.9259,"RA_OF_ASC_NODE":327.676,"ARG_OF_PERICENTER":105.7424,"MEAN_ANOMALY":254.3944,"EPHEMERIS_TYPE":0,"CLASSIFICATION_TYPE":"U","NORAD_CAT_ID":49296,"ELEMENT_SET_NO":999,"REV_AT_EPOCH":19462,"BSTAR":0.00026862783,"MEAN_MOTION_DOT":1.22e-6,"MEAN_MOTION_DDOT":0},{"OBJECT_NAME":"ONEWEB-0371","OBJECT_ID":"2021-090U","EPOCH":"2025-09-23T00:16:31.973952","MEAN_MOTION":13.19725964,"ECCENTRICITY":0.00017816,"INCLINATION":87.9285,"RA_OF_ASC_NODE":358.0999,"ARG_OF_PERICENTER":103.8291,"MEAN_ANOMALY":256.304,"EPHEMERIS_TYPE":0,"CLASSIFICATION_TYPE":"U","NORAD_CAT_ID":49297,"ELEMENT_SET_NO":999,"REV_AT_EPOCH":19121,"BSTAR":-0.00013166214,"MEAN_MOTION_DOT":-4.0e-7,"MEAN_MOTION_DDOT":0},{"OBJECT_NAME":"ONEWEB-0372","OBJECT_ID":"2021-090V","EPOCH":"2025-09-23T04:39:57.216672","MEAN_MOTION":13.20772751,"ECCENTRICITY":0.00017853,"INCLINATION":87.9257,"RA_OF_ASC_NODE":327.6807,"ARG_OF_PERICENTER":98.5011,"MEAN_ANOMALY":261.6325,"EPHEMERIS_TYPE":0,"CLASSIFICATION_TYPE":"U","NORAD_CAT_ID":49298,"ELEMENT_SET_NO":999,"REV_AT_EPOCH":19459,"BSTAR":0.00024276351,"MEAN_MOTION_DOT":1.12e-6,"MEAN_MOTION_DDOT":0},{"OBJECT_NAME":"ONEWEB-0373","OBJECT_ID":"2021-090W","EPOCH":"2025-09-23T05:18:47.110176","MEAN_MOTION":13.20771441,"ECCENTRICITY":0.00019791,"INCLINATION":87.9256,"RA_OF_ASC_NODE":327.6891,"ARG_OF_PERICENTER":96.8477,"MEAN_ANOMALY":263.2881,"EPHEMERIS_TYPE":0,"CLASSIFICATION_TYPE":"U","NORAD_CAT_ID":49299,"ELEMENT_SET_NO":999,"REV_AT_EPOCH":19578,"BSTAR":4.6884277e-5,"MEAN_MOTION_DOT":3.2e-7,"MEAN_MOTION_DDOT":0},{"OBJECT_NAME":"ONEWEB-0374","OBJECT_ID":"2021-090X","EPOCH":"2025-09-22T17:12:25.395840","MEAN_MOTION":13.14502266,"ECCENTRICITY":0.00018902,"INCLINATION":87.9074,"RA_OF_ASC_NODE":342.9598,"ARG_OF_PERICENTER":82.4488,"MEAN_ANOMALY":277.6856,"EPHEMERIS_TYPE":0,"CLASSIFICATION_TYPE":"U","NORAD_CAT_ID":49300,"ELEMENT_SET_NO":999,"REV_AT_EPOCH":19242,"BSTAR":-0.00036330257,"MEAN_MOTION_DOT":-1.22e-6,"MEAN_MOTION_DDOT":0},{"OBJECT_NAME":"ONEWEB-0375","OBJECT_ID":"2021-090Y","EPOCH":"2025-09-22T21:44:14.661600","MEAN_MOTION":13.20771283,"ECCENTRICITY":0.0002298,"INCLINATION":87.9258,"RA_OF_ASC_NODE":327.7314,"ARG_OF_PERICENTER":86.1096,"MEAN_ANOMALY":274.03,"EPHEMERIS_TYPE":0,"CLASSIFICATION_TYPE":"U","NORAD_CAT_ID":49301,"ELEMENT_SET_NO":999,"REV_AT_EPOCH":19524,"BSTAR":0.00025396755,"MEAN_MOTION_DOT":1.16e-6,"MEAN_MOTION_DDOT":0},{"OBJECT_NAME":"ONEWEB-0376","OBJECT_ID":"2021-090Z","EPOCH":"2025-09-22T16:57:33.396192","MEAN_MOTION":13.19723749,"ECCENTRICITY":0.00015831,"INCLINATION":87.9292,"RA_OF_ASC_NODE":358.1428,"ARG_OF_PERICENTER":103.9733,"MEAN_ANOMALY":256.1576,"EPHEMERIS_TYPE":0,"CLASSIFICATION_TYPE":"U","NORAD_CAT_ID":49302,"ELEMENT_SET_NO":999,"REV_AT_EPOCH":19117,"BSTAR":-0.00019226873,"MEAN_MOTION_DOT":-6.4e-7,"MEAN_MOTION_DDOT":0},{"OBJECT_NAME":"ONEWEB-0377","OBJECT_ID":"2021-090AA","EPOCH":"2025-09-23T04:40:21.360288","MEAN_MOTION":13.20773024,"ECCENTRICITY":0.00021341,"INCLINATION":87.9264,"RA_OF_ASC_NODE":327.6693,"ARG_OF_PERICENTER":100.0863,"MEAN_ANOMALY":260.0512,"EPHEMERIS_TYPE":0,"CLASSIFICATION_TYPE":"U","NORAD_CAT_ID":49303,"ELEMENT_SET_NO":999,"REV_AT_EPOCH":19527,"BSTAR":0.00042880679,"MEAN_MOTION_DOT":1.87e-6,"MEAN_MOTION_DDOT":0},{"OBJECT_NAME":"ONEWEB-0378","OBJECT_ID":"2021-090AB","EPOCH":"2025-09-22T21:55:45.967872","MEAN_MOTION":13.20768629,"ECCENTRICITY":0.00019628,"INCLINATION":87.9273,"RA_OF_ASC_NODE":327.7386,"ARG_OF_PERICENTER":93.9568,"MEAN_ANOMALY":266.1789,"EPHEMERIS_TYPE":0,"CLASSIFICATION_TYPE":"U","NORAD_CAT_ID":49304,"ELEMENT_SET_NO":999,"REV_AT_EPOCH":19450,"BSTAR":9.679165e-6,"MEAN_MOTION_DOT":1.7e-7,"MEAN_MOTION_DDOT":0},{"OBJECT_NAME":"ONEWEB-0379","OBJECT_ID":"2021-090AC","EPOCH":"2025-09-22T17:05:32.394336","MEAN_MOTION":13.14504802,"ECCENTRICITY":0.00017462,"INCLINATION":87.9078,"RA_OF_ASC_NODE":342.9682,"ARG_OF_PERICENTER":97.4104,"MEAN_ANOMALY":262.7224,"EPHEMERIS_TYPE":0,"CLASSIFICATION_TYPE":"U","NORAD_CAT_ID":49305,"ELEMENT_SET_NO":999,"REV_AT_EPOCH":19242,"BSTAR":-0.00056462524,"MEAN_MOTION_DOT":-1.97e-6,"MEAN_MOTION_DDOT":0},{"OBJECT_NAME":"ONEWEB-0380","OBJECT_ID":"2021-090AD","EPOCH":"2025-09-22T13:14:39.381216","MEAN_MOTION":13.19726004,"ECCENTRICITY":0.00020221,"INCLINATION":87.9286,"RA_OF_ASC_NODE":358.2005,"ARG_OF_PERICENTER":98.8173,"MEAN_ANOMALY":261.3189,"EPHEMERIS_TYPE":0,"CLASSIFICATION_TYPE":"U","NORAD_CAT_ID":49306,"ELEMENT_SET_NO":999,"REV_AT_EPOCH":19112,"BSTAR":0.00016780975,"MEAN_MOTION_DOT":8.0e-7,"MEAN_MOTION_DDOT":0},{"OBJECT_NAME":"ONEWEB-0381","OBJECT_ID":"2021-090AE","EPOCH":"2025-09-22T17:41:04.634016","MEAN_MOTION":13.20770226,"ECCENTRICITY":0.00020645,"INCLINATION":87.9256,"RA_OF_ASC_NODE":327.7687,"ARG_OF_PERICENTER":92.2015,"MEAN_ANOMALY":267.9355,"EPHEMERIS_TYPE":0,"CLASSIFICATION_TYPE":"U","NORAD_CAT_ID":49307,"ELEMENT_SET_NO":999,"REV_AT_EPOCH":19452,"BSTAR":0.00013270286,"MEAN_MOTION_DOT":6.7e-7,"MEAN_MOTION_DDOT":0},{"OBJECT_NAME":"ONEWEB-0382","OBJECT_ID":"2021-090AF","EPOCH":"2025-09-22T21:01:03.465120","MEAN_MOTION":13.20771645,"ECCENTRICITY":0.00019326,"INCLINATION":87.9258,"RA_OF_ASC_NODE":327.7317,"ARG_OF_PERICENTER":88.4518,"MEAN_ANOMALY":271.6837,"EPHEMERIS_TYPE":0,"CLASSIFICATION_TYPE":"U","NORAD_CAT_ID":49308,"ELEMENT_SET_NO":999,"REV_AT_EPOCH":19453,"BSTAR":0.00026948066,"MEAN_MOTION_DOT":1.23e-6,"MEAN_MOTION_DDOT":0}]
