ONEWEB-0367             
1 49293U 21090Q   25266.19611372 -.00004420  00000+0 -10904-1 0  9996
2 49293  87.9262 327.6696 0001895  85.5520 274.5829 13.20792127194588
ONEWEB-0368             
1 49294U 21090R   25265.56324006  .00000002  00000+0 -26294-4 0  9995
2 49294  87.9256 327.8309 0001417  73.5180 286.6109 13.20770207195653
ONEWEB-0369             
1 49295U 21090S   25266.00359069  .00000077  00000+0  16064-3 0  9997
2 49295  87.9293 358.1130 0001711 101.0618 259.0707 13.19725793191173
ONEWEB-0370             
1 49296U 21090T   25266.20559611  .00000122  00000+0  26863-3 0  9994
2 49296  87.9259 327.6760 0002132 105.7424 254.3944 13.20770422194625
ONEWEB-0371             
1 49297U 21090U   25266.01148118 -.00000040  00000+0 -13166-3 0  9993
2 49297  87.9285 358.0999 0001781 103.8291 256.3040 13.19725964191217
ONEWEB-0372             
1 49298U 21090V   25266.19441223  .00000112  00000+0  24276-3 0  9998
2 49298  87.9257 327.6807 0001785  98.5011 261.6325 13.20772751194598
ONEWEB-0373             
1 49299U 21090W   25266.22137859  .00000032  00000+0  46884-4 0  9991
2 49299  87.9256 327.6891 0001979  96.8477 263.2881 13.20771441195785
ONEWEB-0374             
1 49300U 21090X   25265.71696060 -.00000122  00000+0 -36330-3 0  9997
2 49300  87.9074 342.9598 0001890  82.4488 277.6856 13.14502266192424
ONEWEB-0375             
1 49301U 21090Y   25265.90572525  .00000116  00000+0  25397-3 0  9990
2 49301  87.9258 327.7314 0002298  86.1096 274.0300 13.20771283195247
ONEWEB-0376             
1 49302U 21090Z   25265.70663653 -.00000064  00000+0 -19227-3 0  9991
2 49302  87.9292 358.1428 0001583 103.9733 256.1576 13.19723749191178
ONEWEB-0377             
1 49303U 21090AA  25266.19469167  .00000187  00000+0  42881-3 0  9996
2 49303  87.9264 327.6693 0002134 100.0863 260.0512 13.20773024195270
ONEWEB-0378             
1 49304U 21090AB  25265.91372648  .00000017  00000+0  96792-5 0  9997
2 49304  87.9273 327.7386 0001962  93.9568 266.1789 13.20768629194504
ONEWEB-0379             
1 49305U 21090AC  25265.71218049 -.00000197  00000+0 -56463-3 0  9990
2 49305  87.9078 342.9682 0001746  97.4104 262.7224 13.14504802192420
ONEWEB-0380             
1 49306U 21090AD  25265.55184469  .00000080  00000+0  16781-3 0  9999
2 49306  87.9286 358.2005 0002022  98.8173 261.3189 13.19726004191126
ONEWEB-0381             
1 49307U 21090AE  25265.73685919  .00000067  00000+0  13270-3 0  9991
2 49307  87.9256 327.7687 0002064  92.2015 267.9355 13.20770226194521
ONEWEB-0382             
1 49308U 21090AF  25265.87573455  .00000123  00000+0  26948-3 0  9997
2 49308  87.9258 327.7317 0001932  88.4518 271.6837 13.20771645194536
